OBJECT_NAME,OBJECT_ID,EPOCH,MEAN_MOTION,ECCENTRICITY,INCLINATION,RA_OF_ASC_NODE,ARG_OF_PERICENTER,MEAN_ANOMALY,EPHEMERIS_TYPE,CLASSIFICATION_TYPE,NORAD_CAT_ID,ELEMENT_SET_NO,REV_AT_EPOCH,BSTAR,MEAN_MOTION_DOT,MEAN_MOTION_DDOT
SIRION PATHFINDER-2,2018-099B,2026-06-17T15:27:41.711328,15.14551067,.0007179,97.4248,217.6909,303.3569,56.6975,0,U,43759,999,41269,.18548E-3,.3356E-4,0
CORVUS BC4,2018-099K,2026-06-17T15:38:02.770944,15.12499738,.0008204,97.4063,211.6182,11.8470,348.2952,0,U,43767,999,41247,.20509E-3,.3509E-4,0
M2 PATHFINDER,2020-037E,2026-06-17T13:53:34.724832,15.04677114,.0012526,97.8146,359.8151,144.9775,215.2277,0,U,45727,999,32555,.9804E-4,.1317E-4,0
NETSAT-4,2020-068U,2026-06-16T23:53:03.012000,15.43860202,.00038693,97.8600,176.2206,339.1494,20.9595,0,U,46504,999,31574,.32923971E-3,.14852E-3,0
NETSAT-3,2020-068V,2026-06-17T12:29:06.542304,15.42688001,.0004166,97.8649,175.0036,0.5703,359.5547,0,U,46505,999,31573,.34277E-3,.14868E-3,0
NETSAT-1,2020-068W,2026-06-17T12:38:22.090848,15.34649788,.0004996,97.8743,169.3378,31.5449,328.6092,0,U,46506,999,31535,.28756E-3,.9573E-4,0
NETSAT-2,2020-068X,2026-06-17T11:43:32.340000,15.46009035,.00034123,97.8608,176.6489,26.1763,333.9657,0,U,46507,999,31578,.38293481E-3,.1861E-3,0
GREENCUBE (IO-117),2022-080E,2026-06-13T07:02:28.697280,6.42583230,.00089108,70.1444,299.5995,290.4576,69.5127,0,U,53109,999,9181,0,-.3E-7,0
SITRO-AIS 5 (KATYS),2023-091L,2026-06-17T20:31:19.033824,15.29470654,.0012771,97.5057,232.7608,101.3708,258.8967,0,U,57176,999,16444,.36575E-3,.10401E-3,0
SITRO-AIS 6 (CHIRKIN),2023-091AC,2026-06-17T20:03:13.194432,15.25945758,.0013098,97.5064,231.8567,104.4673,255.8019,0,U,57192,999,16438,.32889E-3,.839E-4,0
SITRO-AIS 8 (ANOKHIN),2023-091AD,2026-06-17T19:20:06.455328,15.32151081,.0011773,97.5052,234.3019,98.1600,262.0977,0,U,57193,999,16454,.4016E-3,.12419E-3,0
SITRO-AIS 7 (FARTUSHNIY),2023-091AE,2026-06-17T20:07:56.704800,15.25633459,.0012948,97.5061,231.6849,105.4609,254.8060,0,U,57194,999,16437,.3193E-3,.8066E-4,0
SITRO-AIS 10 (BURDAEV),2023-091AK,2026-06-17T20:01:47.290368,15.38633321,.0007455,97.5079,239.3922,78.5311,281.6771,0,U,57199,999,16486,.4333E-3,.16478E-3,0
SITRO-AIS 9 (SHCHUKIN),2023-091AM,2026-06-17T20:40:06.110976,15.38141330,.0007717,97.5077,239.1489,78.3563,281.8548,0,U,57201,999,16485,.43152E-3,.1615E-3,0
SITRO-AIS 12 (SMIRENNIY),2023-091AQ,2026-06-17T20:26:24.701856,15.38434478,.0007248,97.5091,239.6066,73.5329,286.6712,0,U,57204,999,16487,.41873E-3,.15816E-3,0
SITRO-AIS 11 (SHEFFER),2023-091AU,2026-06-17T19:11:49.715808,15.38857760,.0007107,97.5088,239.8008,73.6964,286.5062,0,U,57208,999,16488,.43994E-3,.16855E-3,0
SITRO-AIS 25,2024-039R,2026-06-17T20:17:01.965696,14.93515877,.0143375,95.3905,235.5448,326.4267,32.7932,0,U,59066,999,12482,.17552E-3,.2226E-4,0
SITRO-AIS 26,2024-039S,2026-06-17T20:19:08.327424,14.93311807,.0143724,95.3906,235.4432,327.0135,32.2183,0,U,59067,999,12481,.17387E-3,.2194E-4,0
SITRO-AIS 27,2024-039T,2026-06-17T21:12:29.247840,14.93734042,.0142711,95.3913,235.7408,325.5231,33.6797,0,U,59068,999,12484,.15206E-3,.1931E-4,0
SITRO-AIS 28,2024-039U,2026-06-17T20:39:59.263776,14.93766664,.014257,95.3911,235.7724,325.4208,33.7806,0,U,59071,999,12484,.19497E-3,.2488E-4,0
GRBBETA,2024-128C,2026-06-17T11:39:08.441568,15.06640908,.00406176,61.9882,215.2195,134.7304,225.7108,0,U,60237,999,10631,.17434717E-3,.2424E-4,0
OOV-CUBE (TUBSAT-30),2024-128F,2026-06-17T15:42:13.546944,15.02775098,.0044583,61.9933,223.9441,133.8615,226.6174,0,U,60240,999,10618,.12352E-3,.1478E-4,0
ROBUSTA-3A (MEDITERRANEE),2024-128J,2026-06-17T14:20:56.965056,15.11679517,.0041354,61.9845,206.7918,128.0239,232.4601,0,U,60243,999,10648,.24768E-3,.4093E-4,0
LASARSAT,2024-247Q,2026-06-16T23:25:46.453440,15.46364825,.000818,44.9742,263.4006,330.0323,30.0098,0,U,62391,999,8328,.52389176E-3,.26221E-3,0
CROCUBE,2024-247T,2026-06-17T16:25:00.764832,15.48292245,.0007968,44.9716,256.7472,338.3414,21.7139,0,U,62394,999,8342,.53655E-3,.2875E-3,0
FORESAIL-1 PRIME,2025-276DS,2026-06-17T17:18:42.859296,15.18706701,.0003962,97.4199,241.9826,102.4588,257.7090,0,U,66778,999,3048,.18399E-3,.3751E-4,0
KNACKSAT-2,1998-067XZ,2026-06-17T14:33:42.297120,15.60014370,.0009088,51.6314,292.3670,217.1010,142.9356,0,U,67683,999,2034,.49993E-3,.40994E-3,0
